#aV2011  8  2  0  0   .00000000      96 DD+AD WGS84 FIT  NGA
## 1647 172800.00000000   900.00000000 55775  .0000000000000
+   32     1  2  3  4  5  6  7  8  9 10 11 12 13 14 15 16 17
+         18 19 20 21 22 23 24 25 26 27 28 29 30 31 32  0  0
+          0  0  0  0  0  0  0  0  0  0  0  0  0  0  0  0  0
+          0  0  0  0  0  0  0  0  0  0  0  0  0  0  0  0  0
+          0  0  0  0  0  0  0  0  0  0  0  0  0  0  0  0  0
++         0  0  0  0  0  0  0  0  0  0  0  0  0  0  0  0  0
++         0  0  0  0  0  0  0  0  0  0  0  0  0  0  0  0  0
++         0  0  0  0  0  0  0  0  0  0  0  0  0  0  0  0  0
++         0  0  0  0  0  0  0  0  0  0  0  0  0  0  0  0  0
++         0  0  0  0  0  0  0  0  0  0  0  0  0  0  0  0  0
%c cc cc ccc ccc cccc cccc cccc cccc ccccc ccccc ccccc ccccc
%c cc cc ccc ccc cccc cccc cccc cccc ccccc ccccc ccccc ccccc
%f  0.0000000  0.000000000  0.00000000000  0.000000000000000
%f  0.0000000  0.000000000  0.00000000000  0.000000000000000
%i    0    0    0    0      0      0      0      0         0
%i    0    0    0    0      0      0      0      0         0
/*      NGA, ST. LOUIS,MO.                                  
/*   EPHEMERIS COMPUTED FROM  3 DAYS OF DATA                
/* CCCCCCCCCCCCCCCCCCCCCCCCCCCCCCCCCCCCCCCCCCCCCCCCCCCCCCCCC
/* CCCCCCCCCCCCCCCCCCCCCCCCCCCCCCCCCCCCCCCCCCCCCCCCCCCCCCCCC
*  2011  8  2  6 15   .00000000                                                 
P  1   -930.511580 -17406.594692  20395.579316     -8.620289                    
V  1  20540.839590 -14897.605598 -11783.177849       .011924                    
P  2  22181.485787 -13332.922229  -4603.519918    349.437812                    
V  2  -2312.778747   6771.806064 -30833.707052       .017403                    
P  3 -13059.408977  10021.685859  20358.688865    749.613433                    
V  3  -8034.525058 -25821.743794   7711.274924       .050577                    
P  4  21159.895042  -1037.788350 -16438.503856    189.554403                    
V  4 -14961.646631  14026.088425 -20069.508375       .109490                    
P  5  19890.735844  -4843.643946  16969.738490   -198.021508                    
V  5  19223.790122   9908.529431 -19582.571013      -.054549                    
P  6 -15147.546108   4731.254979  21432.670009   -108.206690                    
V  6  -5329.398231 -26450.498069   2331.237988       .108923                    
P  7   5840.384305  14061.262841  21743.253704     20.316325                    
V  7 -22308.252395  16229.963168  -4728.859571       .015470                    
P  8  14292.120137   7245.595458  21326.617472      8.682190                    
V  8 -22455.918626  14616.229802   9550.847232       .002214                    
P  9  12015.559734 -20361.845284 -12672.521729     96.584694                    
V  9  12827.377980  -8235.608828  26551.145190       .023923                    
P 10  25079.430183   8869.109793   2742.244871     -8.674308                    
V 10   2236.233430   4139.543177 -30975.001961      -.012254                    
P 11 -10419.000861  23210.954482  -7324.939683   -173.336563                    
V 11  -9494.168078   4154.395530  28294.193018      -.032869                    
P 12   1407.675867 -15355.485892 -21635.969562     13.139861                    
V 12  25286.838254  10628.984021  -5725.626101       .024896                    
P 13   4321.183567  25713.906470   4692.417568    258.322955                    
V 13  -1649.098854   6220.483963 -31691.810872      -.017777                    
P 14 -13657.952418 -12276.253931 -19080.128881    164.860760                    
V 14   -749.949275 -24481.333146  16003.614890       .020176                    
P 15   5693.555593 -22596.412501  12594.213920   -112.796627                    
V 15   5082.012299  15483.572718  25662.527210       .018911                    
P 16 -19444.892837   4290.066518  17742.276956   -189.209923                    
V 16 -19829.000338 -10367.737801 -18943.175186      -.023617                    
P 17  14562.664300  11074.132522 -19194.701772    180.571139                    
V 17   1245.859074  24593.415174  14801.487547      -.012060                    
P 18 -17427.544354 -16877.083135  11567.600392    150.231651                    
V 18  14060.654387   3046.990000  26015.528616       .018868                    
P 19  -9297.804508  19959.249281  14571.898707   -168.535663                    
V 19  -3232.676302 -18549.551069  23676.584681      -.040674                    
P 20   1086.134991  16785.714213 -20707.274448     51.286128                    
V 20 -24773.089724  -8180.953017  -7923.043188       .003734                    
P 21  -9819.898896 -12697.029036  21589.757424   -161.924251                    
V 21  21340.786456 -15776.156901   -172.957584      -.025340                    
P 22 -24449.521471 -10529.893622   -168.740089    145.764741                    
V 22   1090.673547  -3561.633958  30976.425097      -.004226                    
P 23   -733.065691  25782.580157  -5465.651754    287.266325                    
V 23  -3751.744255  -6624.859684 -31034.555874      -.029354                    
P 24  -9767.067051  19574.865062 -14799.826212    411.842552                    
V 24 -17145.548973   8651.100525  22979.400820       .031710                    
P 25 -11390.031166 -17124.058421 -16848.582648     11.999802                    
V 25  20431.308131   6334.254724 -20254.051050       .018114                    
P 26  12174.219146 -12359.721443  19392.044963   -110.237046                    
V 26   2618.321927  25888.892988  14799.567302      -.122527                    
P 27  16798.779272 -19254.390219  -5870.013616    290.655230                    
V 27   8003.469278  -3473.407451  31257.432129       .038663                    
P 28  22906.675707  13360.018406   3611.169984     56.408194                    
V 28  -4413.466225    235.984399  31476.730481       .028798                    
P 29  -5186.842978 -25774.209515   4023.496511    228.068301                    
V 29   2205.374079  -5236.536526 -31215.156423       .030126                    
P 30 -24769.574000  -2461.271828   8866.428625     31.895299                    
V 30 -10214.902001  -6553.223872 -28974.651306       .054674                    
P 31 -21845.552353   4264.995461 -14454.827733    120.175523                    
V 31  13910.063166 -12414.510844 -24145.937165       .057463                    
P 32  -7959.439603  13010.448419 -21457.082312   -302.953286                    
V 32 -24635.805920 -13185.459597   1547.017595      -.070998                    
EOF
